NORAD_CAT_ID,OBJECT_NAME,OBJECT_TYPE,EPOCH,MEAN_MOTION,ECCENTRICITY,INCLINATION,RA_OF_ASC_NODE,ARG_OF_PERICENTER,MEAN_ANOMALY,BSTAR,MEAN_MOTION_DOT,MEAN_MOTION_DDOT,TLE_LINE0,TLE_LINE1,TLE_LINE2,SEMIMAJOR_AXIS,PERIOD,APOGEE,PERIGEE,DECAYED
51777.0,STARLINK-3625,PAYLOAD,2022-11-19 11:59:19,15.08845795,0.0002765,53.2201,353.9277,31.8103,328.3055,2.4978e-05,1.09e-06,0.0,0 STARLINK-3625,1 51777U 22017K   22323.49953124  .00000109  00000-0  24978-4 0  9992,2 51777  53.2201 353.9277 0002765  31.8103 328.3055 15.08845795 41973,6917.863,95.437,541.64,537.815,0.0
51777.0,STARLINK-3625,PAYLOAD,2022-11-20 11:50:06,15.08845199,0.0002524,53.2193,349.4662,29.2165,330.8968,4.3919e-05,4.11e-06,0.0,0 STARLINK-3625,1 51777U 22017K   22324.49312825  .00000411  00000-0  43919-4 0  9992,2 51777  53.2193 349.4662 0002524  29.2165 330.8968 15.08845199 40656,6917.864000000001,95.437,541.476,537.9830000000002,0.0
51777.0,STARLINK-3625,PAYLOAD,2022-11-21 08:30:07,15.08835167,0.0002684,53.2199,345.6006,29.451,330.6633,-2.7384e-05,-7.24e-06,0.0,0 STARLINK-3625,1 51777U 22017K   22325.35425729 -.00000724  00000-0 -27384-4 0  9993,2 51777  53.2199 345.6006 0002684  29.4510 330.6633 15.08835167 42254,6917.895,95.438,541.617,537.903,0.0
51777.0,STARLINK-3625,PAYLOAD,2022-11-21 13:16:17,15.088369,0.0002563999999999,53.2186,344.7094,31.8556,328.2591,-7.981e-05,-1.558e-05,0.0,0 STARLINK-3625,1 51777U 22017K   22325.55297762 -.00001558  00000-0 -79810-4 0  9996,2 51777  53.2186 344.7094 0002564  31.8556 328.2591 15.08836900 40813,6917.89,95.438,541.529,537.981,0.0
51777.0,STARLINK-3625,PAYLOAD,2022-11-22 05:10:08,15.0885446,0.0002656,53.2193,341.7353,27.4901,332.6231,-0.00013438,-2.428e-05,0.0,0 STARLINK-3625,1 51777U 22017K   22326.21537139 -.00002428  00000-0 -13438-3 0  9995,2 51777  53.2193 341.7353 0002656  27.4901 332.6231 15.08854460 42388,6917.8359999999975,95.437,541.539,537.864,0.0
51777.0,STARLINK-3625,PAYLOAD,2022-11-22 09:56:19,15.08747336,0.0003232,53.2193,340.8434,31.1455,328.9728,0.0014930999999999,0.00023496,0.0,0 STARLINK-3625,1 51777U 22017K   22326.41411833  .00023496  00000-0  14931-2 0  9993,2 51777  53.2193 340.8434 0003232  31.1455 328.9728 15.08747336 42411,6918.1640000000025,95.443,542.265,537.793,0.0
51777.0,STARLINK-3625,PAYLOAD,2022-11-22 17:53:13,15.08841087,0.0002729,53.2193,339.3565,27.9333,332.1805,0.00012128,1.642e-05,0.0,0 STARLINK-3625,1 51777U 22017K   22326.74529198  .00001642  00000-0  12128-3 0  9999,2 51777  53.2193 339.3565 0002729  27.9333 332.1805 15.08841087 42463,6917.877,95.437,541.63,537.854,0.0
51777.0,STARLINK-3625,PAYLOAD,2022-11-23 09:47:05,15.08826474,0.0002782,53.2194,336.3824,27.8543,332.2598,4.2583e-05,3.89e-06,0.0,0 STARLINK-3625,1 51777U 22017K   22327.40770514  .00000389  00000-0  42583-4 0  9999,2 51777  53.2194 336.3824 0002782  27.8543 332.2598 15.08826474 41091,6917.922,95.438,541.711,537.862,0.0
51777.0,STARLINK-3625,PAYLOAD,2022-11-23 12:57:52,15.08825674,0.0002833999999999,53.2194,335.7882,27.6249,332.4893,2.7844e-05,1.54e-06,0.0,0 STARLINK-3625,1 51777U 22017K   22327.54018695  .00000154  00000-0  27844-4 0  9992,2 51777  53.2194 335.7882 0002834  27.6249 332.4893 15.08825674 42583,6917.924,95.438,541.75,537.8290000000002,0.0
51777.0,STARLINK-3625,PAYLOAD,2022-11-24 06:27:06,15.08837653,0.0002754,53.2194,332.5176,28.8701,331.2443,1.7242000000000002e-05,-1.4e-07,0.0,0 STARLINK-3625,1 51777U 22017K   22328.26882254 -.00000014  00000-0  17242-4 0  9999,2 51777  53.2194 332.5176 0002754  28.8701 331.2443 15.08837653 42691,6917.888000000001,95.438,541.658,537.847,0.0
51777.0,STARLINK-3625,PAYLOAD,2022-11-24 09:37:52,15.08840774,0.0002966,53.2192,331.9231,25.9187,334.1953,6.965e-07,-2.78e-06,0.0,0 STARLINK-3625,1 51777U 22017K   22328.40130140 -.00000278  00000-0  69650-6 0  9999,2 51777  53.2192 331.9231 0002966  25.9187 334.1953 15.08840774 41241,6917.878000000002,95.438,541.795,537.691,0.0
51777.0,STARLINK-3625,PAYLOAD,2022-11-24 17:34:47,15.08846362,0.0002799,53.2189,330.4365,27.9549,332.1593,4.769600000000001e-05,4.71e-06,0.0,0 STARLINK-3625,1 51777U 22017K   22328.73249549  .00000471  00000-0  47696-4 0  9997,2 51777  53.2189 330.4365 0002799  27.9549 332.1593 15.08846362 42762,6917.861,95.437,541.6619999999998,537.79,0.0
51777.0,STARLINK-3625,PAYLOAD,2022-11-25 07:53:16,15.0883684,0.0002758,53.2202,327.7594,27.9519,332.1621,0.00010317,1.354e-05,0.0,0 STARLINK-3625,1 51777U 22017K   22329.32865828  .00001354  00000-0  10317-3 0  9997,2 51777  53.2202 327.7594 0002758  27.9519 332.1621 15.08836840 42855,6917.89,95.438,541.663,537.847,0.0
51777.0,STARLINK-3625,PAYLOAD,2022-11-25 17:25:34,15.08836843,0.0002778,53.22,325.9752,28.9185,331.1961,0.00011681,1.571e-05,0.0,0 STARLINK-3625,1 51777U 22017K   22329.72609952  .00001571  00000-0  11681-3 0  9991,2 51777  53.2200 325.9752 0002778  28.9185 331.1961 15.08836843 41444,6917.89,95.438,541.677,537.8330000000002,0.0
51777.0,STARLINK-3625,PAYLOAD,2022-11-26 02:57:53,15.088479,0.0002961,53.2199,324.1914,28.73,331.3854,0.00012631,1.723e-05,0.0,0 STARLINK-3625,1 51777U 22017K   22330.12353234  .00001723  00000-0  12631-3 0  9991,2 51777  53.2199 324.1914 0002961  28.7300 331.3854 15.08847900 42971,6917.856,95.437,541.77,537.673,0.0
51777.0,STARLINK-3625,PAYLOAD,2022-11-26 09:19:26,15.08843413,0.0002716,53.2196,323.0012,31.1169,328.9984,4.2904e-05,3.94e-06,0.0,0 STARLINK-3625,1 51777U 22017K   22330.38849612  .00000394  00000-0  42904-4 0  9999,2 51777  53.2196 323.0012 0002716  31.1169 328.9984 15.08843413 43011,6917.87,95.437,541.614,537.856,0.0
51777.0,STARLINK-3625,PAYLOAD,2022-11-26 17:16:21,15.08844179,0.0002737,53.2196,321.5145,31.7707,328.345,3.5517e-05,2.77e-06,0.0,0 STARLINK-3625,1 51777U 22017K   22330.71969511  .00000277  00000-0  35517-4 0  9999,2 51777  53.2196 321.5145 0002737  31.7707 328.3450 15.08844179 41591,6917.868,95.437,541.626,537.839,0.0
51777.0,STARLINK-3625,PAYLOAD,2022-11-27 10:45:36,15.08837724,0.0002917,53.2186,318.2444,29.2357,330.8798,-2.0895e-06,-3.22e-06,0.0,0 STARLINK-3625,1 51777U 22017K   22331.44833736 -.00000322  00000-0 -20895-5 0  9996,2 51777  53.2186 318.2444 0002917  29.2357 330.8798 15.08837724 43175,6917.887,95.438,541.77,537.734,0.0
51777.0,STARLINK-3625,PAYLOAD,2022-11-28 10:36:23,15.08843406,0.0002923,53.2188,313.7835,34.5259,325.5923,-3.1296e-05,-7.87e-06,0.0,0 STARLINK-3625,1 51777U 22017K   22332.44193717 -.00000787  00000-0 -31296-4 0  9996,2 51777  53.2188 313.7835 0002923  34.5259 325.5923 15.08843406 41856,6917.87,95.437,541.757,537.7130000000002,0.0
51777.0,STARLINK-3625,PAYLOAD,2022-11-28 23:19:28,15.0881626,0.0002796,53.2196,311.4039,37.4506,322.6681,0.00031398,4.709e-05,0.0,0 STARLINK-3625,1 51777U 22017K   22332.97185950  .00004709  00000-0  31398-3 0  9992,2 51777  53.2196 311.4039 0002796  37.4506 322.6681 15.08816260 43401,6917.953,95.439,541.752,537.884,0.0
51777.0,STARLINK-3625,PAYLOAD,2022-11-29 10:27:11,15.08810857,0.0003088,53.2193,309.3233,32.5985,327.5197,0.00041471,6.313e-05,0.0,0 STARLINK-3625,1 51777U 22017K   22333.43554778  .00006313  00000-0  41471-3 0  9998,2 51777  53.2193 309.3233 0003088  32.5985 327.5197 15.08810857 42009,6917.969,95.439,541.971,537.698,0.0
51777.0,STARLINK-3625,PAYLOAD,2022-11-30 00:45:39,15.08837197,0.0002968,53.2191,306.6474,32.4444,327.673,7.1705e-05,8.53e-06,0.0,0 STARLINK-3625,1 51777U 22017K   22334.03170240  .00000853  00000-0  71705-4 0  9990,2 51777  53.2191 306.6474 0002968  32.4444 327.6730 15.08837197 43561,6917.889,95.438,541.807,537.701,0.0
51777.0,STARLINK-3625,PAYLOAD,2022-11-30 07:07:11,15.08836381,0.0002979,53.2192,305.4581,32.6152,327.5024,5.8875e-05,6.48e-06,0.0,0 STARLINK-3625,1 51777U 22017K   22334.29666376  .00000648  00000-0  58875-4 0  9993,2 51777  53.2192 305.4581 0002979  32.6152 327.5024 15.08836381 42139,6917.891,95.438,541.817,537.696,0.0
51777.0,STARLINK-3625,PAYLOAD,2022-12-01 10:08:44,15.08841583,0.0002949,53.2192,300.4028,33.9876,326.1305,7.7222e-05,9.41e-06,0.0,0 STARLINK-3625,1 51777U 22017K   22335.42274058  .00000941  00000-0  77222-4 0  9994,2 51777  53.2192 300.4028 0002949  33.9876 326.1305 15.08841583 42300,6917.876,95.437,541.781,537.7,0.0
51777.0,STARLINK-3625,PAYLOAD,2022-12-01 14:54:54,15.08838158,0.000299,53.2192,299.5107,33.9151,326.2032,1.4706e-05,-5.5e-07,0.0,0 STARLINK-3625,1 51777U 22017K   22335.62146447 -.00000055  00000-0  14706-4 0  9991,2 51777  53.2192 299.5107 0002990  33.9151 326.2032 15.08838158 43806,6917.886,95.438,541.819,537.683,0.0
51777.0,STARLINK-3625,PAYLOAD,2022-12-02 06:48:45,15.08846586,0.0002934,53.2194,296.5371,35.1969,324.9217,9.3617e-05,1.202e-05,0.0,0 STARLINK-3625,1 51777U 22017K   22336.28385637  .00001202  00000-0  93617-4 0  9992,2 51777  53.2194 296.5371 0002934  35.1969 324.9217 15.08846586 43902,6917.86,95.437,541.755,537.696,0.0
51777.0,STARLINK-3625,PAYLOAD,2022-12-02 21:07:13,15.08837799,0.0003193,53.2187,293.8625,32.6681,327.4509,6.4701e-05,7.41e-06,0.0,0 STARLINK-3625,1 51777U 22017K   22336.88002165  .00000741  00000-0  64701-4 0  9999,2 51777  53.2187 293.8625 0003193  32.6681 327.4509 15.08837799 43994,6917.887,95.438,541.961,537.543,0.0
51777.0,STARLINK-3625,PAYLOAD,2022-12-03 03:28:46,15.08834476,0.0003166,53.2196,292.6719,35.8781,324.2423,-5.5623e-07,-2.98e-06,0.0,0 STARLINK-3625,1 51777U 22017K   22337.14498718 -.00000298  00000-0 -55623-6 0  9996,2 51777  53.2196 292.6719 0003166  35.8781 324.2423 15.08834476 42562,6917.897,95.438,541.952,537.572,0.0
51777.0,STARLINK-3625,PAYLOAD,2022-12-03 20:58:00,15.08845243,0.0003047,53.2191,289.4006,35.1681,324.9512,0.00012918,1.768e-05,0.0,0 STARLINK-3625,1 51777U 22017K   22337.87361680  .00001768  00000-0  12918-3 0  9991,2 51777  53.2191 289.4006 0003047  35.1681 324.9512 15.08845243 42672,6917.864000000001,95.437,541.837,537.621,0.0
